QIANFAN-1               
1 60379U 24140A   25355.13599397  .00000084  00000+0  11186-3 0  9993
2 60379  88.9769 298.4113 0016732 184.8654 175.2337 13.50979327 68487
QIANFAN-2               
1 60380U 24140B   25355.09089883  .00000081  00000+0  10735-3 0  9990
2 60380  88.9755 298.2542 0012970 154.6088 205.5703 13.50983032 68532
QIANFAN-3               
1 60381U 24140C   25355.17312505  .00000096  00000+0  13037-3 0  9994
2 60381  88.9748 298.3777 0013661 167.5749 192.5741 13.50983612 68453
QIANFAN-4               
1 60382U 24140D   25355.14832914  .00000080  00000+0  10437-3 0  9997
2 60382  88.9772 298.2800 0013108 157.1720 203.0016 13.50979294 68574
QIANFAN-5               
1 60383U 24140E   25355.12376295  .00000080  00000+0  10540-3 0  9996
2 60383  88.9747 298.4082 0014546 179.8840 180.2317 13.50981281 68436
QIANFAN-6               
1 60384U 24140F   25355.14435304  .00000084  00000+0  11203-3 0  9997
2 60384  88.9774 298.1545 0013036 163.1071 197.0517 13.50981644 68636
QIANFAN-7               
1 60385U 24140G   25355.15544399  .00000509  00000+0  20059-3 0  9995
2 60385  88.9789 292.7330 0016207  20.6734 339.5112 14.27659966 71598
QIANFAN-8               
1 60386U 24140H   25355.15262890  .00000076  00000+0  98941-4 0  9994
2 60386  88.9775 298.3913 0016394 167.1093 193.0481 13.50979539 68487
